QIANFAN-33              
1 61566U 24185Q   25256.26399955  .00000301  00000+0  20835-3 0  9996
2 61566  88.9735  88.9054 0004970 241.0117 119.0562 13.96433882 56536
QIANFAN-34              
1 61567U 24185R   25256.24346030  .00000321  00000+0  20080-3 0  9995
2 61567  88.9712  88.5907 0003363 248.5254 111.5568 14.02185782 56673
QIANFAN-35              
1 61568U 24185S   25256.22372629  .00000597  00000+0  23616-3 0  9990
2 61568  88.9738  87.5138 0005332 206.7277 153.3643 14.27720395 57262
QIANFAN-36              
1 61569U 24185T   25256.24586419  .00000108  00000+0  13865-3 0  9990
2 61569  88.9721  90.4816 0004705 320.3112  39.7697 13.55552415 55669
QIANFAN-37              
1 62238U 24232B   25256.18917875  .00000055  00000+0  66293-4 0  9999
2 62238  88.9960  50.4637 0001971  75.5469 284.5900 13.50962464 86947
QIANFAN-38              
1 62239U 24232C   25256.21403709  .00000042  00000+0  46062-4 0  9998
2 62239  88.9967  50.3708 0016489  96.8517 263.4511 13.50966253 87005
QIANFAN-39              
1 62240U 24232D   25256.21049948  .00000249  00000+0  99610-4 0  9997
2 62240  88.9968  47.6529 0016750  23.0157 337.1783 14.25243675 88494
QIANFAN-40              
1 62241U 24232E   25256.24696420  .00000039  00000+0  41992-4 0  9991
2 62241  88.9995  49.9265 0015498 103.7930 256.4947 13.50971061 87375
